[
    {
        "Altitude(m)": 559886.4896249982,
        "Argument of Periapsis(deg)": 0.033114955553567506,
        "Eccentricity": 0.0,
        "Inclination(deg)": 53.0,
        "Latitude(deg)": 53.089134301053086,
        "Longitude(deg)": -120.14939209863181,
        "Mean Anomaly(deg)": 92.27626433788792,
        "RAAN(deg)": 249.95071684264008,
        "Satellite Name": "Starlink Shell 1 1102",
        "Satellite Number": 1102,
        "Semi-Major Axis(m)": 6931778.249405717,
        "Time(s)": 950
    },
    {
        "Altitude(m)": 559877.9264502012,
        "Argument of Periapsis(deg)": 0.03346353403307874,
        "Eccentricity": 0.0,
        "Inclination(deg)": 53.0,
        "Latitude(deg)": 53.05108525699025,
        "Longitude(deg)": -119.15221910622539,
        "Mean Anomaly(deg)": 92.90309554144467,
        "RAAN(deg)": 249.95019807256264,
        "Satellite Name": "Starlink Shell 1 1102",
        "Satellite Number": 1102,
        "Semi-Major Axis(m)": 6931778.249405717,
        "Time(s)": 960
    },
    {
        "Altitude(m)": 559867.3077942649,
        "Argument of Periapsis(deg)": 0.03381211251258998,
        "Eccentricity": 0.0,
        "Inclination(deg)": 53.0,
        "Latitude(deg)": 53.00399376525003,
        "Longitude(deg)": -118.1570891201186,
        "Mean Anomaly(deg)": 93.52992674500132,
        "RAAN(deg)": 249.94967930248515,
        "Satellite Name": "Starlink Shell 1 1102",
        "Satellite Number": 1102,
        "Semi-Major Axis(m)": 6931778.249405717,
        "Time(s)": 970
    },
    {
        "Altitude(m)": 559854.640065258,
        "Argument of Periapsis(deg)": 0.034160690992101214,
        "Eccentricity": 0.0,
        "Inclination(deg)": 53.0,
        "Latitude(deg)": 52.94789463372776,
        "Longitude(deg)": -117.16442580824351,
        "Mean Anomaly(deg)": 94.15675794855807,
        "RAAN(deg)": 249.94916053240766,
        "Satellite Name": "Starlink Shell 1 1102",
        "Satellite Number": 1102,
        "Semi-Major Axis(m)": 6931778.249405717,
        "Time(s)": 980
    },
    {
        "Altitude(m)": 559839.9309023652,
        "Argument of Periapsis(deg)": 0.034509269471612446,
        "Eccentricity": 0.0,
        "Inclination(deg)": 53.0,
        "Latitude(deg)": 52.88282909932235,
        "Longitude(deg)": -116.17464507208989,
        "Mean Anomaly(deg)": 94.78358915211481,
        "RAAN(deg)": 249.9486417623302,
        "Satellite Name": "Starlink Shell 1 1102",
        "Satellite Number": 1102,
        "Semi-Major Axis(m)": 6931778.249405717,
        "Time(s)": 990
    }
]